NORAD_CAT_ID,OBJECT_NAME,OBJECT_TYPE,EPOCH,MEAN_MOTION,ECCENTRICITY,INCLINATION,RA_OF_ASC_NODE,ARG_OF_PERICENTER,MEAN_ANOMALY,BSTAR,MEAN_MOTION_DOT,MEAN_MOTION_DDOT,TLE_LINE0,TLE_LINE1,TLE_LINE2,SEMIMAJOR_AXIS,PERIOD,APOGEE,PERIGEE,DECAYED
56450.0,STARLINK-5970,PAYLOAD,2024-07-13 12:04:50,14.98329414,0.0003534,69.9985,227.8686,271.0144,89.061,1.2342e-05,5.4e-07,0.0,0 STARLINK-5970,1 56450U 23064C   24195.50336500  .00000054  00000-0  12342-4 0  9993,2 56450  69.9985 227.8686 0003534 271.0144  89.0610 14.98329414 65102,6950.195,96.107,574.516,569.604,0.0
56450.0,STARLINK-5970,PAYLOAD,2024-07-13 20:05:30,14.98330715,0.0003529,69.9986,227.0269,271.0363,89.0392,8.707e-06,1.1e-07,0.0,0 STARLINK-5970,1 56450U 23064C   24195.83716431  .00000011  00000-0  87070-5 0  9998,2 56450  69.9986 227.0269 0003529 271.0363  89.0392 14.98330715 64796,6950.191,96.107,574.508,569.603,0.0
56450.0,STARLINK-5970,PAYLOAD,2024-07-14 12:06:51,14.98334349,0.0003578,69.9984,225.3437,271.1212,88.9537,1.3514e-05,6.8e-07,0.0,0 STARLINK-5970,1 56450U 23064C   24196.50476070  .00000068  00000-0  13514-4 0  9998,2 56450  69.9984 225.3437 0003578 271.1212  88.9537 14.98334349 65258,6950.179,96.107,574.531,569.558,0.0
56450.0,STARLINK-5970,PAYLOAD,2024-07-15 12:08:52,14.98331021,0.0003581,69.9984,222.8188,271.0009,89.074,3.4171e-05,3.15e-06,0.0,0 STARLINK-5970,1 56450U 23064C   24197.50616141  .00000315  00000-0  34171-4 0  9991,2 56450  69.9984 222.8188 0003581 271.0009  89.0740 14.98331021 65409,6950.19,96.107,574.544,569.566,0.0
56450.0,STARLINK-5970,PAYLOAD,2024-07-15 18:33:24,14.98330245,0.0003576,69.9984,222.1454,270.9983,89.0766,1.6306e-05,1.01e-06,0.0,0 STARLINK-5970,1 56450U 23064C   24197.77320222  .00000101  00000-0  16306-4 0  9995,2 56450  69.9984 222.1454 0003576 270.9983  89.0766 14.98330245 65080,6950.192,96.107,574.543,569.572,0.0
56450.0,STARLINK-5970,PAYLOAD,2024-07-16 10:34:45,14.98330426,0.0003528,69.9983,220.4624,270.4264,89.6491,7.0533e-06,-9e-08,0.0,0 STARLINK-5970,1 56450U 23064C   24198.44080200 -.00000009  00000-0  70533-5 0  9990,2 56450  69.9983 220.4624 0003528 270.4264  89.6491 14.98330426 65186,6950.192,96.107,574.509,569.605,0.0
56450.0,STARLINK-5970,PAYLOAD,2024-07-17 05:48:22,14.98326404,0.0003526,69.9983,218.4426,268.7469,91.3286,-2.4797e-05,-3.89e-06,0.0,0 STARLINK-5970,1 56450U 23064C   24199.24192570 -.00000389  00000-0 -24797-4 0  9995,2 56450  69.9983 218.4426 0003526 268.7469  91.3286 14.98326404 65664,6950.204,96.107,574.52,569.618,0.0
56450.0,STARLINK-5970,PAYLOAD,2024-07-17 10:36:46,14.98327175,0.0003526,69.9983,217.9375,269.3665,90.709,-1.4531e-05,-2.66e-06,0.0,0 STARLINK-5970,1 56450U 23064C   24199.44220535 -.00000266  00000-0 -14531-4 0  9999,2 56450  69.9983 217.9375 0003526 269.3665  90.7090 14.98327175 65332,6950.202,96.107,574.517,569.616,0.0
56450.0,STARLINK-5970,PAYLOAD,2024-07-18 04:14:14,14.98331405,0.0003562,69.9981,216.0856,268.71,91.3651,5.597e-05,5.75e-06,0.0,0 STARLINK-5970,1 56450U 23064C   24200.17656125  .00000575  00000-0  55970-4 0  9993,2 56450  69.9981 216.0856 0003562 268.7100  91.3651 14.98331405 65804,6950.189,96.107,574.529,569.578,0.0
56450.0,STARLINK-5970,PAYLOAD,2024-07-18 10:38:47,14.9833324,0.0003573,69.9982,215.4124,269.0857,90.9893,5.9404e-05,6.16e-06,0.0,0 STARLINK-5970,1 56450U 23064C   24200.44359977  .00000616  00000-0  59404-4 0  9990,2 56450  69.9982 215.4124 0003573 269.0857  90.9893 14.98333240 65487,6950.183,96.107,574.531,569.565,0.0
56450.0,STARLINK-5970,PAYLOAD,2024-07-18 18:39:27,14.98331073,0.0003634,69.9981,214.5703,269.3485,90.7258,5.5957e-05,5.75e-06,0.0,0 STARLINK-5970,1 56450U 23064C   24200.77740068  .00000575  00000-0  55957-4 0  9994,2 56450  69.9981 214.5703 0003634 269.3485  90.7258 14.98331073 65538,6950.19,96.107,574.58,569.529,0.0
56450.0,STARLINK-5970,PAYLOAD,2024-07-19 04:16:15,14.98329408,0.0003625,69.9981,213.5604,269.0248,91.0495,5.291e-05,5.38e-06,0.0,0 STARLINK-5970,1 56450U 23064C   24201.17796189  .00000538  00000-0  52910-4 0  9999,2 56450  69.9981 213.5604 0003625 269.0248  91.0495 14.98329408 65953,6950.195,96.107,574.579,569.54,0.0
56450.0,STARLINK-5970,PAYLOAD,2024-07-19 10:40:48,14.98331019,0.0003635,69.9983,212.8874,269.6579,90.4164,6.6857e-05,7.05e-06,0.0,0 STARLINK-5970,1 56450U 23064C   24201.44500054  .00000705  00000-0  66857-4 0  9994,2 56450  69.9983 212.8874 0003635 269.6579  90.4164 14.98331019 65632,6950.19,96.107,574.581,569.528,0.0
56450.0,STARLINK-5970,PAYLOAD,2024-07-19 18:41:28,14.98329932,0.0003615,69.9984,212.0457,269.7238,90.3507,2.29e-05,1.8e-06,0.0,0 STARLINK-5970,1 56450U 23064C   24201.77880178  .00000180  00000-0  22900-4 0  9996,2 56450  69.9984 212.0457 0003615 269.7238  90.3507 14.98329932 65689,6950.193,96.107,574.571,569.546,0.0
56450.0,STARLINK-5970,PAYLOAD,2024-07-20 05:54:24,14.9833135,0.0003618,69.9985,210.8675,269.5929,90.4815,-2.2695e-05,-3.64e-06,0.0,0 STARLINK-5970,1 56450U 23064C   24202.24612185 -.00000364  00000-0 -22695-4 0  9997,2 56450  69.9985 210.8675 0003618 269.5929  90.4815 14.98331350 66115,6950.189,96.107,574.568,569.539,0.0
56450.0,STARLINK-5970,PAYLOAD,2024-07-20 10:42:48,14.9833373,0.0003592,69.9985,210.3624,269.4542,90.6206,4.6136e-06,-3.8e-07,0.0,0 STARLINK-5970,1 56450U 23064C   24202.44639923 -.00000038  00000-0  46136-5 0  9992,2 56450  69.9985 210.3624 0003592 269.4542  90.6206 14.98333730 65787,6950.181,96.107,574.543,569.55,0.0
56450.0,STARLINK-5970,PAYLOAD,2024-07-21 10:44:49,14.98331237,0.0003551,69.9989,207.8377,269.6313,90.4439,1.4476e-05,8e-07,0.0,0 STARLINK-5970,1 56450U 23064C   24203.44779993  .00000080  00000-0  14476-4 0  9992,2 56450  69.9989 207.8377 0003551 269.6313  90.4439 14.98331237 66293,6950.189,96.107,574.522,569.586,0.0
56450.0,STARLINK-5970,PAYLOAD,2024-07-22 09:10:42,14.98330124,0.0003483,69.9993,205.4816,269.0058,91.0702,2.2468e-05,1.75e-06,0.0,0 STARLINK-5970,1 56450U 23064C   24204.38244066  .00000175  00000-0  22468-4 0  9999,2 56450  69.9993 205.4816 0003483 269.0058  91.0702 14.98330124 66074,6950.193,96.107,574.478,569.637,0.0
56450.0,STARLINK-5970,PAYLOAD,2024-07-23 06:00:27,14.98330641,0.0003487,69.9995,203.2936,268.4464,91.6296,4.1067e-05,3.97e-06,0.0,0 STARLINK-5970,1 56450U 23064C   24205.25031960  .00000397  00000-0  41067-4 0  9995,2 56450  69.9995 203.2936 0003487 268.4464  91.6296 14.98330641 66565,6950.191,96.107,574.479,569.632,0.0
56450.0,STARLINK-5970,PAYLOAD,2024-07-23 09:12:43,14.98332179,0.000348,69.9994,202.9568,269.2617,90.8143,5.5762e-05,5.72e-06,0.0,0 STARLINK-5970,1 56450U 23064C   24205.38383818  .00000572  00000-0  55762-4 0  9993,2 56450  69.9994 202.9568 0003480 269.2617  90.8143 14.98332179 66226,6950.186,96.107,574.47,569.632,0.0
56450.0,STARLINK-5970,PAYLOAD,2024-07-24 09:14:45,14.98327154,0.0003413,69.9995,200.432,268.573,91.5038,2.0481e-06,-6.9e-07,0.0,0 STARLINK-5970,1 56450U 23064C   24206.38524320 -.00000069  00000-0  20481-5 0  9992,2 56450  69.9995 200.4320 0003413 268.5730  91.5038 14.98327154 66734,6950.202,96.107,574.439,569.695,0.0
56450.0,STARLINK-5970,PAYLOAD,2024-07-25 06:04:29,14.98331908,0.0003468,69.9993,198.2437,268.837,91.2392,1.9026e-05,1.34e-06,0.0,0 STARLINK-5970,1 56450U 23064C   24207.25311959  .00000134  00000-0  19026-4 0  9995,2 56450  69.9993 198.2437 0003468 268.8370  91.2392 14.98331908 66505,6950.187,96.107,574.462,569.642,0.0
56450.0,STARLINK-5970,PAYLOAD,2024-07-25 09:16:45,14.98332584,0.000346,69.9994,197.9072,268.8553,91.2209,2.6824e-05,2.27e-06,0.0,0 STARLINK-5970,1 56450U 23064C   24207.38663880  .00000227  00000-0  26824-4 0  9999,2 56450  69.9994 197.9072 0003460 268.8553  91.2209 14.98332584 66881,6950.185,96.107,574.455,569.645,0.0
56450.0,STARLINK-5970,PAYLOAD,2024-07-26 09:18:46,14.98333201,0.0003472,69.9994,195.3823,269.5652,90.5109,8.6345e-05,9.37e-06,0.0,0 STARLINK-5970,1 56450U 23064C   24208.38803582  .00000937  00000-0  86345-4 0  9997,2 56450  69.9994 195.3823 0003472 269.5652  90.5109 14.98333201 67034,6950.183,96.107,574.461,569.635,0.0
56450.0,STARLINK-5970,PAYLOAD,2024-07-27 06:08:31,14.9833278,0.0003417,69.9997,193.1942,269.7629,90.3138,1.4757e-05,8.3e-07,0.0,0 STARLINK-5970,1 56450U 23064C   24209.25591632  .00000083  00000-0  14757-4 0  9994,2 56450  69.9997 193.1942 0003417 269.7629  90.3138 14.98332780 66805,6950.184,96.107,574.424,569.674,0.0
56450.0,STARLINK-5970,PAYLOAD,2024-07-27 09:20:47,14.98333927,0.0003401,69.9997,192.8576,269.86,90.2169,2.8035e-05,2.41e-06,0.0,0 STARLINK-5970,1 56450U 23064C   24209.38943503  .00000241  00000-0  28035-4 0  9996,2 56450  69.9997 192.8576 0003401 269.8600  90.2169 14.98333927 67186,6950.181,96.107,574.41,569.682,0.0
56450.0,STARLINK-5970,PAYLOAD,2024-07-28 04:34:24,14.98328317,0.0003339,69.9998,190.8379,269.9,90.1776,-4.8587e-05,-6.73e-06,0.0,0 STARLINK-5970,1 56450U 23064C   24210.19056034 -.00000673  00000-0 -48587-4 0  9996,2 56450  69.9998 190.8379 0003339 269.9000  90.1776 14.98328317 67305,6950.198,96.107,574.384,569.742,0.0
56450.0,STARLINK-5970,PAYLOAD,2024-07-28 09:22:48,14.98330013,0.0003237,70.0001,190.3338,267.6079,92.4709,-1.3316e-05,-2.52e-06,0.0,0 STARLINK-5970,1 56450U 23064C   24210.39083825 -.00000252  00000-0 -13316-4 0  9991,2 56450  70.0001 190.3338 0003237 267.6079  92.4709 14.98330013 66970,6950.193,96.107,574.308,569.808,0.0
56450.0,STARLINK-5970,PAYLOAD,2024-07-29 04:36:25,14.98328199,0.000317,70.0002,188.3135,268.2867,91.7929,-1.801e-06,-1.15e-06,0.0,0 STARLINK-5970,1 56450U 23064C   24211.19195944 -.00000115  00000-0 -18010-5 0  9991,2 56450  70.0002 188.3135 0003170 268.2867  91.7929 14.98328199 67453,6950.198,96.107,574.267,569.86,0.0
56450.0,STARLINK-5970,PAYLOAD,2024-07-29 09:24:49,14.98329026,0.0003152,70.0003,187.8085,268.736,91.3438,7.0929e-06,-8e-08,0.0,0 STARLINK-5970,1 56450U 23064C   24211.39223891 -.00000008  00000-0  70929-5 0  9993,2 56450  70.0003 187.8085 0003152 268.7360  91.3438 14.98329026 67120,6950.196,96.107,574.252,569.87,0.0
